{
  "type": "FeatureCollection",
  "features": [
    {
      "type": "Feature",
      "properties": {
        "norad_id": 41890,
        "name": "CYGFM07",
        "group": "weather",
        "lat": -20.194113406564338,
        "lon": 158.31842476993825,
        "alt_km": 417.0871207814953,
        "timestamp": "2025-12-24T03:53:29.285210+00:00",
        "meta_object_name": "CYGFM07",
        "meta_object_id": "2016-078G",
        "meta_epoch": "2025-12-23T06:52:12.582336",
        "meta_mean_motion": 15.50433306,
        "meta_eccentricity": 0.00096946,
        "meta_inclination": 34.9482,
        "meta_ra_of_asc_node": 312.2836,
        "meta_arg_of_pericenter": 304.5826,
        "meta_mean_anomaly": 55.3981,
        "meta_ephemeris_type": 0,
        "meta_classification_type": "U",
        "meta_norad_cat_id": 41890,
        "meta_element_set_no": 999,
        "meta_rev_at_epoch": 50159,
        "meta_bstar": 0.00038423067,
        "meta_mean_motion_dot": 0.00022616,
        "meta_mean_motion_ddot": 0,
        "tle_line1": "1 41890U 16078G   25357.28625674  .00022616  00000+0  38423-3 0  9995",
        "tle_line2": "2 41890  34.9482 312.2836 0009694 304.5826  55.3981 15.50433306501596"
      },
      "geometry": {
        "type": "Point",
        "coordinates": [
          158.31842476993825,
          -20.194113406564338
        ]
      }
    },
    {
      "type": "Feature",
      "properties": {
        "norad_id": 41891,
        "name": "CYGFM03",
        "group": "weather",
        "lat": 25.037435435071934,
        "lon": -9.54980272462008,
        "alt_km": 412.69071173621796,
        "timestamp": "2025-12-24T03:53:29.285220+00:00",
        "meta_object_name": "CYGFM03",
        "meta_object_id": "2016-078H",
        "meta_epoch": "2025-12-23T04:30:19.896192",
        "meta_mean_motion": 15.50323541,
        "meta_eccentricity": 0.00094582,
        "meta_inclination": 34.9438,
        "meta_ra_of_asc_node": 314.8551,
        "meta_arg_of_pericenter": 291.3131,
        "meta_mean_anomaly": 68.6581,
        "meta_ephemeris_type": 0,
        "meta_classification_type": "U",
        "meta_norad_cat_id": 41891,
        "meta_element_set_no": 999,
        "meta_rev_at_epoch": 50155,
        "meta_bstar": 0.00038012472,
        "meta_mean_motion_dot": 0.00022283,
        "meta_mean_motion_ddot": 0,
        "tle_line1": "1 41891U 16078H   25357.18773028  .00022283  00000+0  38012-3 0  9996",
        "tle_line2": "2 41891  34.9438 314.8551 0009458 291.3131  68.6581 15.50323541501558"
      },
      "geometry": {
        "type": "Point",
        "coordinates": [
          -9.54980272462008,
          25.037435435071934
        ]
      }
    },
    {
      "type": "Feature",
      "properties": {
        "norad_id": 43010,
        "name": "FENGYUN 3D",
        "group": "weather",
        "lat": 32.81441363903048,
        "lon": -41.2160375202716,
        "alt_km": 824.8502075800488,
        "timestamp": "2025-12-24T03:53:29.285233+00:00",
        "meta_object_name": "FENGYUN 3D",
        "meta_object_id": "2017-072A",
        "meta_epoch": "2025-12-23T20:58:09.740640",
        "meta_mean_motion": 14.19686944,
        "meta_eccentricity": 0.0001478,
        "meta_inclination": 98.991,
        "meta_ra_of_asc_node": 324.3507,
        "meta_arg_of_pericenter": 151.2111,
        "meta_mean_anomaly": 208.9146,
        "meta_ephemeris_type": 0,
        "meta_classification_type": "U",
        "meta_norad_cat_id": 43010,
        "meta_element_set_no": 999,
        "meta_rev_at_epoch": 42011,
        "meta_bstar": -3.1942e-06,
        "meta_mean_motion_dot": -5.3e-07,
        "meta_mean_motion_ddot": 0,
        "tle_line1": "1 43010U 17072A   25357.87372385 -.00000053  00000+0 -31942-5 0  9993",
        "tle_line2": "2 43010  98.9910 324.3507 0001478 151.2111 208.9146 14.19686944420112"
      },
      "geometry": {
        "type": "Point",
        "coordinates": [
          -41.2160375202716,
          32.81441363903048
        ]
      }
    },
    {
      "type": "Feature",
      "properties": {
        "norad_id": 43013,
        "name": "NOAA 20 (JPSS-1)",
        "group": "weather",
        "lat": 0.8663871358414205,
        "lon": 114.468228496036,
        "alt_km": 830.2308885123775,
        "timestamp": "2025-12-24T03:53:29.285244+00:00",
        "meta_object_name": "NOAA 20 (JPSS-1)",
        "meta_object_id": "2017-073A",
        "meta_epoch": "2025-12-23T18:35:34.117152",
        "meta_mean_motion": 14.19528533,
        "meta_eccentricity": 0.0002087,
        "meta_inclination": 98.7614,
        "meta_ra_of_asc_node": 293.9514,
        "meta_arg_of_pericenter": 71.2865,
        "meta_mean_anomaly": 288.8537,
        "meta_ephemeris_type": 0,
        "meta_classification_type": "U",
        "meta_norad_cat_id": 43013,
        "meta_element_set_no": 999,
        "meta_rev_at_epoch": 41958,
        "meta_bstar": 6.2691e-05,
        "meta_mean_motion_dot": 8.8e-07,
        "meta_mean_motion_ddot": 0,
        "tle_line1": "1 43013U 17073A   25357.77470043  .00000088  00000+0  62691-4 0  9996",
        "tle_line2": "2 43013  98.7614 293.9514 0002087  71.2865 288.8537 14.19528533419586"
      },
      "geometry": {
        "type": "Point",
        "coordinates": [
          114.468228496036,
          0.8663871358414205
        ]
      }
    },
    {
      "type": "Feature",
      "properties": {
        "norad_id": 43226,
        "name": "GOES 17",
        "group": "weather",
        "lat": -0.20465445088554463,
        "lon": 61.827632512423044,
        "alt_km": 35796.087838467116,
        "timestamp": "2025-12-24T03:53:29.285257+00:00",
        "meta_object_name": "GOES 17",
        "meta_object_id": "2018-022A",
        "meta_epoch": "2025-12-23T13:25:33.995136",
        "meta_mean_motion": 1.00272474,
        "meta_eccentricity": 0.0003033,
        "meta_inclination": 0.4839,
        "meta_ra_of_asc_node": 89.0854,
        "meta_arg_of_pericenter": 190.6629,
        "meta_mean_anomaly": 284.4872,
        "meta_ephemeris_type": 0,
        "meta_classification_type": "U",
        "meta_norad_cat_id": 43226,
        "meta_element_set_no": 999,
        "meta_rev_at_epoch": 2866,
        "meta_bstar": 0,
        "meta_mean_motion_dot": -1.62e-06,
        "meta_mean_motion_ddot": 0,
        "tle_line1": "1 43226U 18022A   25357.55942124 -.00000162  00000+0  00000+0 0  9992",
        "tle_line2": "2 43226   0.4839  89.0854 0003033 190.6629 284.4872  1.00272474 28663"
      },
      "geometry": {
        "type": "Point",
        "coordinates": [
          61.827632512423044,
          -0.20465445088554463
        ]
      }
    },
    {
      "type": "Feature",
      "properties": {
        "norad_id": 43491,
        "name": "FENGYUN 2H",
        "group": "weather",
        "lat": 1.29838784618706,
        "lon": -129.33120315273584,
        "alt_km": 35776.62819139451,
        "timestamp": "2025-12-24T03:53:29.285271+00:00",
        "meta_object_name": "FENGYUN 2H",
        "meta_object_id": "2018-050A",
        "meta_epoch": "2025-12-23T20:21:25.420896",
        "meta_mean_motion": 1.00270737,
        "meta_eccentricity": 0.0002378,
        "meta_inclination": 2.5778,
        "meta_ra_of_asc_node": 81.2126,
        "meta_arg_of_pericenter": 166.6705,
        "meta_mean_anomaly": 229.4472,
        "meta_ephemeris_type": 0,
        "meta_classification_type": "U",
        "meta_norad_cat_id": 43491,
        "meta_element_set_no": 999,
        "meta_rev_at_epoch": 2768,
        "meta_bstar": 0,
        "meta_mean_motion_dot": -1.1e-06,
        "meta_mean_motion_ddot": 0,
        "tle_line1": "1 43491U 18050A   25357.84821089 -.00000110  00000+0  00000+0 0  9998",
        "tle_line2": "2 43491   2.5778  81.2126 0002378 166.6705 229.4472  1.00270737 27683"
      },
      "geometry": {
        "type": "Point",
        "coordinates": [
          -129.33120315273584,
          1.29838784618706
        ]
      }
    },
    {
      "type": "Feature",
      "properties": {
        "norad_id": 43689,
        "name": "METOP-C",
        "group": "weather",
        "lat": 39.752765836582874,
        "lon": 48.44618228412576,
        "alt_km": 816.7381740489454,
        "timestamp": "2025-12-24T03:53:29.285293+00:00",
        "meta_object_name": "METOP-C",
        "meta_object_id": "2018-087A",
        "meta_epoch": "2025-12-23T19:15:21.152160",
        "meta_mean_motion": 14.21488436,
        "meta_eccentricity": 7.03e-05,
        "meta_inclination": 98.6913,
        "meta_ra_of_asc_node": 55.4016,
        "meta_arg_of_pericenter": 19.4056,
        "meta_mean_anomaly": 340.7148,
        "meta_ephemeris_type": 0,
        "meta_classification_type": "U",
        "meta_norad_cat_id": 43689,
        "meta_element_set_no": 999,
        "meta_rev_at_epoch": 36991,
        "meta_bstar": 7.3836e-05,
        "meta_mean_motion_dot": 1.18e-06,
        "meta_mean_motion_ddot": 0,
        "tle_line1": "1 43689U 18087A   25357.80232815  .00000118  00000+0  73836-4 0  9995",
        "tle_line2": "2 43689  98.6913  55.4016 0000703  19.4056 340.7148 14.21488436369910"
      },
      "geometry": {
        "type": "Point",
        "coordinates": [
          48.44618228412576,
          39.752765836582874
        ]
      }
    }
  ]
}